[{"OBJECT_NAME":"UNISAT-6","OBJECT_ID":"2014-033C","EPOCH":"2026-04-25T16:25:42.648960","MEAN_MOTION":14.87925532,"ECCENTRICITY":0.0044136,"INCLINATION":97.7813,"RA_OF_ASC_NODE":269.3514,"ARG_OF_PERICENTER":240.5269,"MEAN_ANOMALY":119.1541,"EPHEMERIS_TYPE":0,"CLASSIFICATION_TYPE":"U","NORAD_CAT_ID":40012,"ELEMENT_SET_NO":999,"REV_AT_EPOCH":63835,"BSTAR":0.00031437,"MEAN_MOTION_DOT":2.875e-5,"MEAN_MOTION_DDOT":0},{"OBJECT_NAME":"DUCHIFAT-1","OBJECT_ID":"2014-033M","EPOCH":"2026-04-25T16:10:40.044576","MEAN_MOTION":15.55855059,"ECCENTRICITY":0.0004049,"INCLINATION":98.0542,"RA_OF_ASC_NODE":167.8552,"ARG_OF_PERICENTER":235.8806,"MEAN_ANOMALY":124.2063,"EPHEMERIS_TYPE":0,"CLASSIFICATION_TYPE":"U","NORAD_CAT_ID":40021,"ELEMENT_SET_NO":999,"REV_AT_EPOCH":64756,"BSTAR":0.00094543,"MEAN_MOTION_DOT":0.00065753,"MEAN_MOTION_DDOT":0},{"OBJECT_NAME":"QB50P1","OBJECT_ID":"2014-033R","EPOCH":"2026-04-25T17:45:39.182112","MEAN_MOTION":15.17410648,"ECCENTRICITY":0.0010241,"INCLINATION":98.0996,"RA_OF_ASC_NODE":123.2402,"ARG_OF_PERICENTER":53.8253,"MEAN_ANOMALY":306.3925,"EPHEMERIS_TYPE":0,"CLASSIFICATION_TYPE":"U","NORAD_CAT_ID":40025,"ELEMENT_SET_NO":999,"REV_AT_EPOCH":64507,"BSTAR":0.0004424,"MEAN_MOTION_DOT":8.784e-5,"MEAN_MOTION_DDOT":0},{"OBJECT_NAME":"LILACSAT-2","OBJECT_ID":"2015-049K","EPOCH":"2026-04-25T19:19:12.546912","MEAN_MOTION":15.49690589,"ECCENTRICITY":0.0008847,"INCLINATION":97.4735,"RA_OF_ASC_NODE":150.7048,"ARG_OF_PERICENTER":87.2669,"MEAN_ANOMALY":272.9594,"EPHEMERIS_TYPE":0,"CLASSIFICATION_TYPE":"U","NORAD_CAT_ID":40908,"ELEMENT_SET_NO":999,"REV_AT_EPOCH":58763,"BSTAR":0.00032796,"MEAN_MOTION_DOT":0.00018127,"MEAN_MOTION_DDOT":0},{"OBJECT_NAME":"FOX-1A (AO-85)","OBJECT_ID":"2015-058D","EPOCH":"2026-04-25T15:01:47.235360","MEAN_MOTION":14.90635436,"ECCENTRICITY":0.0128554,"INCLINATION":64.7745,"RA_OF_ASC_NODE":82.2838,"ARG_OF_PERICENTER":77.1823,"MEAN_ANOMALY":284.3617,"EPHEMERIS_TYPE":0,"CLASSIFICATION_TYPE":"U","NORAD_CAT_ID":40967,"ELEMENT_SET_NO":999,"REV_AT_EPOCH":10573,"BSTAR":0.00030051,"MEAN_MOTION_DOT":3.28e-5,"MEAN_MOTION_DDOT":0},{"OBJECT_NAME":"CAS-2T & KS-1Q","OBJECT_ID":"2016-066G","EPOCH":"2026-04-25T19:22:31.324800","MEAN_MOTION":14.44566894,"ECCENTRICITY":0.0340993,"INCLINATION":98.3831,"RA_OF_ASC_NODE":192.1339,"ARG_OF_PERICENTER":288.5659,"MEAN_ANOMALY":67.8779,"EPHEMERIS_TYPE":0,"CLASSIFICATION_TYPE":"U","NORAD_CAT_ID":41847,"ELEMENT_SET_NO":999,"REV_AT_EPOCH":49723,"BSTAR":0.00010151,"MEAN_MOTION_DOT":6.49e-6,"MEAN_MOTION_DDOT":0},{"OBJECT_NAME":"RADFXSAT (FOX-1B)","OBJECT_ID":"2017-073E","EPOCH":"2026-04-25T14:28:53.004000","MEAN_MOTION":15.11739469,"ECCENTRICITY":0.0154067,"INCLINATION":97.4781,"RA_OF_ASC_NODE":343.916,"ARG_OF_PERICENTER":149.5769,"MEAN_ANOMALY":211.4514,"EPHEMERIS_TYPE":0,"CLASSIFICATION_TYPE":"U","NORAD_CAT_ID":43017,"ELEMENT_SET_NO":999,"REV_AT_EPOCH":45744,"BSTAR":0.00037834,"MEAN_MOTION_DOT":8.54e-5,"MEAN_MOTION_DDOT":0},{"OBJECT_NAME":"DIWATA-2B","OBJECT_ID":"2018-084H","EPOCH":"2026-04-25T19:34:07.953312","MEAN_MOTION":15.00188053,"ECCENTRICITY":0.0013273,"INCLINATION":98.1068,"RA_OF_ASC_NODE":309.7957,"ARG_OF_PERICENTER":349.1817,"MEAN_ANOMALY":10.9118,"EPHEMERIS_TYPE":0,"CLASSIFICATION_TYPE":"U","NORAD_CAT_ID":43678,"ELEMENT_SET_NO":999,"REV_AT_EPOCH":40836,"BSTAR":0.00019843,"MEAN_MOTION_DOT":2.418e-5,"MEAN_MOTION_DDOT":0},{"OBJECT_NAME":"ES'HAIL 2","OBJECT_ID":"2018-090A","EPOCH":"2026-04-25T18:51:56.071296","MEAN_MOTION":1.00274159,"ECCENTRICITY":0.0001287,"INCLINATION":0.0334,"RA_OF_ASC_NODE":87.017,"ARG_OF_PERICENTER":331.5686,"MEAN_ANOMALY":103.9806,"EPHEMERIS_TYPE":0,"CLASSIFICATION_TYPE":"U","NORAD_CAT_ID":43700,"ELEMENT_SET_NO":999,"REV_AT_EPOCH":2715,"BSTAR":0,"MEAN_MOTION_DOT":1.31e-6,"MEAN_MOTION_DDOT":0},{"OBJECT_NAME":"FOX-1CLIFF (AO-95)","OBJECT_ID":"2018-099N","EPOCH":"2026-04-25T16:32:10.084704","MEAN_MOTION":15.25544715,"ECCENTRICITY":0.0009635,"INCLINATION":97.4424,"RA_OF_ASC_NODE":176.1653,"ARG_OF_PERICENTER":163.742,"MEAN_ANOMALY":196.4129,"EPHEMERIS_TYPE":0,"CLASSIFICATION_TYPE":"U","NORAD_CAT_ID":43770,"ELEMENT_SET_NO":999,"REV_AT_EPOCH":40521,"BSTAR":0.00045457,"MEAN_MOTION_DOT":0.00011478,"MEAN_MOTION_DDOT":0},{"OBJECT_NAME":"ITASAT","OBJECT_ID":"2018-099AE","EPOCH":"2026-04-25T15:22:53.258880","MEAN_MOTION":15.18357907,"ECCENTRICITY":0.0013266,"INCLINATION":97.4081,"RA_OF_ASC_NODE":168.216,"ARG_OF_PERICENTER":169.0938,"MEAN_ANOMALY":191.0587,"EPHEMERIS_TYPE":0,"CLASSIFICATION_TYPE":"U","NORAD_CAT_ID":43786,"ELEMENT_SET_NO":999,"REV_AT_EPOCH":40493,"BSTAR":0.00033025,"MEAN_MOTION_DOT":6.733e-5,"MEAN_MOTION_DDOT":0},{"OBJECT_NAME":"JY1SAT (JO-97)","OBJECT_ID":"2018-099AX","EPOCH":"2026-04-25T20:52:16.490784","MEAN_MOTION":15.31960258,"ECCENTRICITY":0.0007483,"INCLINATION":97.4169,"RA_OF_ASC_NODE":178.5804,"ARG_OF_PERICENTER":100.2078,"MEAN_ANOMALY":260.0007,"EPHEMERIS_TYPE":0,"CLASSIFICATION_TYPE":"U","NORAD_CAT_ID":43803,"ELEMENT_SET_NO":999,"REV_AT_EPOCH":40561,"BSTAR":0.00062146,"MEAN_MOTION_DOT":0.00019141,"MEAN_MOTION_DDOT":0},{"OBJECT_NAME":"UWE-4","OBJECT_ID":"2018-111E","EPOCH":"2026-04-25T17:39:38.342016","MEAN_MOTION":15.42922425,"ECCENTRICITY":0.0009792,"INCLINATION":97.5857,"RA_OF_ASC_NODE":41.846,"ARG_OF_PERICENTER":139.4628,"MEAN_ANOMALY":220.735,"EPHEMERIS_TYPE":0,"CLASSIFICATION_TYPE":"U","NORAD_CAT_ID":43880,"ELEMENT_SET_NO":999,"REV_AT_EPOCH":40268,"BSTAR":0.00067491,"MEAN_MOTION_DOT":0.00029701,"MEAN_MOTION_DDOT":0},{"OBJECT_NAME":"TIANYAN 01","OBJECT_ID":"2019-093C","EPOCH":"2026-04-25T19:24:16.026048","MEAN_MOTION":14.86428792,"ECCENTRICITY":0.0012114,"INCLINATION":97.7542,"RA_OF_ASC_NODE":189.3155,"ARG_OF_PERICENTER":258.8246,"MEAN_ANOMALY":101.1608,"EPHEMERIS_TYPE":0,"CLASSIFICATION_TYPE":"U","NORAD_CAT_ID":44881,"ELEMENT_SET_NO":999,"REV_AT_EPOCH":34363,"BSTAR":3.872e-5,"MEAN_MOTION_DOT":2.89e-6,"MEAN_MOTION_DDOT":0},{"OBJECT_NAME":"RS-44 & BREEZE-KM R/B","OBJECT_ID":"2019-096E","EPOCH":"2026-04-25T18:43:17.781024","MEAN_MOTION":12.79747976,"ECCENTRICITY":0.0216373,"INCLINATION":82.5261,"RA_OF_ASC_NODE":14.5305,"ARG_OF_PERICENTER":266.9379,"MEAN_ANOMALY":90.6945,"EPHEMERIS_TYPE":0,"CLASSIFICATION_TYPE":"U","NORAD_CAT_ID":44909,"ELEMENT_SET_NO":999,"REV_AT_EPOCH":29564,"BSTAR":-2.2322e-5,"MEAN_MOTION_DOT":4.0e-8,"MEAN_MOTION_DDOT":0},{"OBJECT_NAME":"SALSAT","OBJECT_ID":"2020-068K","EPOCH":"2026-04-25T17:43:34.869792","MEAN_MOTION":15.29000493,"ECCENTRICITY":0.001152,"INCLINATION":97.8866,"RA_OF_ASC_NODE":115.6436,"ARG_OF_PERICENTER":121.8273,"MEAN_ANOMALY":238.4089,"EPHEMERIS_TYPE":0,"CLASSIFICATION_TYPE":"U","NORAD_CAT_ID":46495,"ELEMENT_SET_NO":999,"REV_AT_EPOCH":30734,"BSTAR":0.00030336,"MEAN_MOTION_DOT":8.478e-5,"MEAN_MOTION_DDOT":0},{"OBJECT_NAME":"XW-3 (CAS-9)","OBJECT_ID":"2021-131B","EPOCH":"2026-04-25T20:24:36.136800","MEAN_MOTION":14.41304665,"ECCENTRICITY":0.0002925,"INCLINATION":98.4944,"RA_OF_ASC_NODE":208.532,"ARG_OF_PERICENTER":249.0237,"MEAN_ANOMALY":111.0639,"EPHEMERIS_TYPE":0,"CLASSIFICATION_TYPE":"U","NORAD_CAT_ID":50466,"ELEMENT_SET_NO":999,"REV_AT_EPOCH":22757,"BSTAR":0.00012948,"MEAN_MOTION_DOT":3.75e-6,"MEAN_MOTION_DDOT":0}]
